NORAD_CAT_ID,OBJECT_NAME,OBJECT_TYPE,EPOCH,MEAN_MOTION,ECCENTRICITY,INCLINATION,RA_OF_ASC_NODE,ARG_OF_PERICENTER,MEAN_ANOMALY,BSTAR,MEAN_MOTION_DOT,MEAN_MOTION_DDOT,TLE_LINE0,TLE_LINE1,TLE_LINE2,SEMIMAJOR_AXIS,PERIOD,APOGEE,PERIGEE,DECAYED
52119.0,STARLINK-3558,PAYLOAD,2022-05-15 22:00:00,15.49964038,0.0001774,53.2156,220.3416,35.4342,285.0866,-0.0019672,-0.00110849,0.0,0 STARLINK-3558,1 52119U 22029AH  22135.91667824 -.00110849  00000-0 -19672-2 0  9991,2 52119  53.2156 220.3416 0001774  35.4342 285.0866 15.49964038  1308,6794.968000000003,92.905,418.039,415.628,0.0
52119.0,STARLINK-3558,PAYLOAD,2022-05-16 12:00:00,15.49890107,0.0001967,53.2157,217.5548,38.5692,298.5815,-0.00018654,-0.00011027,0.0,0 STARLINK-3558,1 52119U 22029AH  22136.50001157 -.00011027  00000-0 -18654-3 0  9996,2 52119  53.2157 217.5548 0001967  38.5692 298.5815 15.49890107 10408,6795.184,92.91,418.386,415.713,0.0
52119.0,STARLINK-3558,PAYLOAD,2022-05-16 14:00:01,15.49886781,0.0001996,53.2159,217.1569,37.1168,45.2637,-9.9868e-05,-6.116e-05,0.0,0 STARLINK-3558,1 52119U 22029AH  22136.58334491 -.00006116  00000-0 -99868-4 0  9994,2 52119  53.2159 217.1569 0001996  37.1168  45.2637 15.49886781  1305,6795.194,92.91,418.415,415.703,0.0
52119.0,STARLINK-3558,PAYLOAD,2022-05-16 22:00:00,15.49886009,0.0001823,53.2158,215.5625,33.6104,109.7007,-0.00091308,-0.00051935,0.0,0 STARLINK-3558,1 52119U 22029AH  22136.91667824 -.00051935  00000-0 -91308-3 0  9999,2 52119  53.2158 215.5625 0001823  33.6104 109.7007 15.49886009  1309,6795.196,92.91,418.3,415.822,0.0
52119.0,STARLINK-3558,PAYLOAD,2022-05-17 14:00:01,15.49857417,0.0002069,53.2166,212.3808,33.22,231.9477,0.00093254,0.00052782,0.0,0 STARLINK-3558,1 52119U 22029AH  22137.58335648  .00052782  00000-0  93254-3 0  9990,2 52119  53.2166 212.3808 0002069  33.2200 231.9477 15.49857417  1302,6795.28,92.912,418.551,415.739,0.0
52119.0,STARLINK-3558,PAYLOAD,2022-05-17 20:00:01,15.50079202,0.0001926,53.2165,211.1876,33.1315,187.6209,-0.012195,-0.00643009,0.0,0 STARLINK-3558,1 52119U 22029AH  22137.83334491 -.00643009  00000-0 -12195-1 0  9996,2 52119  53.2165 211.1876 0001926  33.1315 187.6209 15.50079202 10614,6794.632,92.898,417.805,415.18800000000016,0.0
52119.0,STARLINK-3558,PAYLOAD,2022-05-17 22:00:01,15.49897812,0.0001843,53.2171,210.7896,35.8847,290.2094,-0.0084523,-0.0045365,0.0,0 STARLINK-3558,1 52119U 22029AH  22137.91668981 -.00453650  00000-0 -84523-2 0  9995,2 52119  53.2171 210.7896 0001843  35.8847 290.2094 15.49897812  1307,6795.1619999999975,92.909,418.279,415.774,0.0
52119.0,STARLINK-3558,PAYLOAD,2022-05-18 04:00:01,15.49758406,0.0001740999999999,53.2174,209.597,30.0766,251.5583,-0.0096353,-0.00510826,0.0,0 STARLINK-3558,1 52119U 22029AH  22138.16668981 -.00510826  00000-0 -96353-2 0  9996,2 52119  53.2174 209.5970 0001741  30.0766 251.5583 15.49758406 10660,6795.569,92.918,418.617,416.251,0.0
52119.0,STARLINK-3558,PAYLOAD,2022-05-18 12:00:00,15.49391503,0.0002027,53.2177,208.0099,26.7027,315.4177,-0.014024,-0.00724159,0.0,0 STARLINK-3558,1 52119U 22029AH  22138.50001157 -.00724159  00000-0 -14024-1 0  9990,2 52119  53.2177 208.0099 0002027  26.7027 315.4177 15.49391503 10715,6796.642,92.94,419.885,417.129,0.0
52119.0,STARLINK-3558,PAYLOAD,2022-05-18 14:00:01,15.49261721,0.0002166,53.2176,207.6128,24.4117,62.7684,-0.014008,-0.0072034,0.0,0 STARLINK-3558,1 52119U 22029AH  22138.58334491 -.00720340  00000-0 -14008-1 0  9998,2 52119  53.2176 207.6128 0002166  24.4117  62.7684 15.49261721  1309,6797.022,92.947,420.359,417.414,0.0
52119.0,STARLINK-3558,PAYLOAD,2022-05-18 22:00:00,15.4875242,0.0001959,53.2175,206.0223,30.8673,116.1663,-0.014272,-0.00720751,0.0,0 STARLINK-3558,1 52119U 22029AH  22138.91667824 -.00720751  00000-0 -14272-1 0  9993,2 52119  53.2175 206.0223 0001959  30.8673 116.1663 15.48752420  1305,6798.512,92.978,421.708,419.045,0.0
52119.0,STARLINK-3558,PAYLOAD,2022-05-19 14:00:01,15.47730467,0.0001888,53.2175,202.8501,31.3968,233.5683,-0.014721,-0.00717441,0.0,0 STARLINK-3558,1 52119U 22029AH  22139.58335648 -.00717441  00000-0 -14721-1 0  9994,2 52119  53.2175 202.8501 0001888  31.3968 233.5683 15.47730467  1304,6801.504,93.039,424.653,422.085,0.0
52119.0,STARLINK-3558,PAYLOAD,2022-05-19 22:00:00,15.47224017,0.0001459,53.2175,201.2633,44.0824,278.8325,-0.015122,-0.00723496,0.0,0 STARLINK-3558,1 52119U 22029AH  22139.91667824 -.00723496  00000-0 -15122-1 0  9998,2 52119  53.2175 201.2633 0001459  44.0824 278.8325 15.47224017 10932,6802.988,93.07,425.846,423.861,0.0
52119.0,STARLINK-3558,PAYLOAD,2022-05-20 14:00:01,15.46199864,0.0001769,53.2174,198.0986,32.7667,44.3393,-0.015507,-0.00716563,0.0,0 STARLINK-3558,1 52119U 22029AH  22140.58334491 -.00716563  00000-0 -15507-1 0  9998,2 52119  53.2174 198.0986 0001769  32.7667  44.3393 15.46199864  1300,6805.9919999999975,93.132,429.061,426.653,0.0
52119.0,STARLINK-3558,PAYLOAD,2022-05-20 22:00:00,15.45691315,0.000175,53.2175,196.5152,36.0855,97.197,-0.015821,-0.00718197,0.0,0 STARLINK-3558,1 52119U 22029AH  22140.91667824 -.00718197  00000-0 -15821-1 0  9998,2 52119  53.2175 196.5152 0001750  36.0855  97.1970 15.45691315  1309,6807.485,93.162,430.541,428.158,0.0
52119.0,STARLINK-3558,PAYLOAD,2022-05-21 06:00:00,15.45181777,0.000187,53.2176,194.9353,37.284,151.5615,-0.016118,-0.00718911,0.0,0 STARLINK-3558,1 52119U 22029AH  22141.25001157 -.00718911  00000-0 -16118-1 0  9991,2 52119  53.2176 194.9353 0001870  37.2840 151.5615 15.45181777 11145,6808.981,93.193,432.119,429.573,0.0
52119.0,STARLINK-3558,PAYLOAD,2022-05-21 14:00:01,15.44668913,0.0001585,53.2175,193.3577,48.9808,194.8797,-0.016281,-0.00713859,0.0,0 STARLINK-3558,1 52119U 22029AH  22141.58335648 -.00713859  00000-0 -16281-1 0  9999,2 52119  53.2175 193.3577 0001585  48.9808 194.8797 15.44668913  1300,6810.488,93.224,433.4330000000001,431.274,0.0
52119.0,STARLINK-3558,PAYLOAD,2022-05-21 22:00:00,15.44162654,0.0001662,53.2176,191.778,37.8438,260.2899,-0.016725,-0.00720241,0.0,0 STARLINK-3558,1 52119U 22029AH  22141.91667824 -.00720241  00000-0 -16725-1 0  9996,2 52119  53.2176 191.7780 0001662  37.8438 260.2899 15.44162654  1303,6811.977,93.254,434.974,432.709,0.0
52119.0,STARLINK-3558,PAYLOAD,2022-05-22 06:00:00,15.43653899,0.0001826,53.2178,190.202,30.1589,321.6991,-0.017067,-0.00722204,0.0,0 STARLINK-3558,1 52119U 22029AH  22142.25001157 -.00722204  00000-0 -17067-1 0  9996,2 52119  53.2178 190.2020 0001826  30.1589 321.6991 15.43653899 11302,6813.473000000001,93.285,436.582,434.094,0.0
52119.0,STARLINK-3558,PAYLOAD,2022-05-22 14:00:01,15.43140382,0.0001478,53.2174,188.628,41.8066,3.1639,-0.017211,-0.0071613,0.0,0 STARLINK-3558,1 52119U 22029AH  22142.58334491 -.00716130  00000-0 -17211-1 0  9994,2 52119  53.2174 188.6280 0001478  41.8066   3.1639 15.43140382  1307,6814.985,93.316,437.857,435.842,0.0
52119.0,STARLINK-3558,PAYLOAD,2022-05-22 22:00:01,15.42630891,0.0001578,53.2175,187.0519,39.2675,58.2678,-0.017534,-0.00717042,0.0,0 STARLINK-3558,1 52119U 22029AH  22142.91668981 -.00717042  00000-0 -17534-1 0  9996,2 52119  53.2175 187.0519 0001578  39.2675  58.2678 15.42630891  1306,6816.485,93.347,439.426,437.274,0.0
52119.0,STARLINK-3558,PAYLOAD,2022-05-23 14:00:01,15.41608448,0.0001589,53.2173,183.9091,50.4262,150.2048,-0.018019,-0.00712319,0.0,0 STARLINK-3558,1 52119U 22029AH  22143.58334491 -.00712319  00000-0 -18019-1 0  9997,2 52119  53.2173 183.9091 0001589  50.4262 150.2048 15.41608448 11502,6819.499,93.409,442.447,440.28,0.0
52119.0,STARLINK-3558,PAYLOAD,2022-05-23 22:00:01,15.41100943,0.000156,53.2175,182.3365,48.1661,203.1904,-0.018442,-0.00716423,0.0,0 STARLINK-3558,1 52119U 22029AH  22143.91668981 -.00716423  00000-0 -18442-1 0  9998,2 52119  53.2175 182.3365 0001560  48.1661 203.1904 15.41100943  1300,6820.996,93.44,443.925,441.797,0.0
52119.0,STARLINK-3558,PAYLOAD,2022-05-24 10:55:37,15.41279223,0.0002114,53.2158,179.7861,34.7303,325.3841,-0.0077578999999999,-0.00315123,0.0,0 STARLINK-3558,1 52119U 22029AH  22144.45529176 -.00315123  00000-0 -77579-2 0  9999,2 52119  53.2158 179.7861 0002114  34.7303 325.3841 15.41279223 11634,6820.47,93.429,443.777,440.893,0.0
52119.0,STARLINK-3558,PAYLOAD,2022-05-24 14:00:01,15.40081428,0.0001375999999999,53.2174,179.2012,48.4095,302.3649,-0.019083,-0.0071653,0.0,0 STARLINK-3558,1 52119U 22029AH  22144.58334491 -.00716530  00000-0 -19083-1 0  9999,2 52119  53.2174 179.2012 0001376  48.4095 302.3649 15.40081428 11665,6824.005999999999,93.502,446.81,444.932,0.0
52119.0,STARLINK-3558,PAYLOAD,2022-05-24 22:00:00,15.39570672,0.0001511,53.2175,177.6324,39.2616,0.3373,-0.019401,-0.00716282,0.0,0 STARLINK-3558,1 52119U 22029AH  22144.91667824 -.00716282  00000-0 -19401-1 0  9993,2 52119  53.2175 177.6324 0001511  39.2616   0.3373 15.39570672  1303,6825.515,93.533,448.411,446.349,0.0
52119.0,STARLINK-3558,PAYLOAD,2022-05-25 12:00:00,15.38678852,0.0001393,53.2175,174.8954,48.6013,344.9611,-0.020011,-0.00717285,0.0,0 STARLINK-3558,1 52119U 22029AH  22145.50001157 -.00717285  00000-0 -20011-1 0  9993,2 52119  53.2175 174.8954 0001393  48.6013 344.9611 15.38678852 11800,6828.151999999999,93.587,450.968,449.066,0.0
52119.0,STARLINK-3558,PAYLOAD,2022-05-25 14:00:01,15.38551074,0.0001526,53.2172,174.5041,47.7465,87.6578,-0.020059,-0.00716107,0.0,0 STARLINK-3558,1 52119U 22029AH  22145.58334491 -.00716107  00000-0 -20059-1 0  9995,2 52119  53.2172 174.5041 0001526  47.7465  87.6578 15.38551074  1303,6828.53,93.595,451.437,449.353,0.0
52119.0,STARLINK-3558,PAYLOAD,2022-05-25 22:00:00,15.38041073,0.0001665999999999,53.2173,172.93900000000005,43.3918,138.998,-0.020398,-0.00716145,0.0,0 STARLINK-3558,1 52119U 22029AH  22145.91667824 -.00716145  00000-0 -20398-1 0  9999,2 52119  53.2173 172.9390 0001666  43.3918 138.9980 15.38041073  1303,6830.04,93.626,453.042,450.767,0.0
